OBJECT_NAME,OBJECT_ID,EPOCH,MEAN_MOTION,ECCENTRICITY,INCLINATION,RA_OF_ASC_NODE,ARG_OF_PERICENTER,MEAN_ANOMALY,EPHEMERIS_TYPE,CLASSIFICATION_TYPE,NORAD_CAT_ID,ELEMENT_SET_NO,REV_AT_EPOCH,BSTAR,MEAN_MOTION_DOT,MEAN_MOTION_DDOT
KUIPER-00590,2026-118K,2026-06-17T21:42:54.976608,15.37928952,.0004145,51.8687,49.7429,161.0858,199.0284,0,U,69276,999,409,.32136983E-3,.11801E-3,0
KUIPER-00592,2026-118L,2026-06-17T21:39:10.315008,15.38106374,.00036622,51.8707,49.7257,136.7836,223.3439,0,U,69277,999,409,.32512256E-3,.12014E-3,0
KUIPER-00593,2026-118M,2026-06-17T21:40:13.914048,15.38064403,.00038064,51.8712,49.7296,156.5697,203.5464,0,U,69278,999,415,.32453607E-3,.11975E-3,0
KUIPER-00594,2026-118N,2026-06-17T19:54:38.011968,15.38681661,.00010462,51.8716,49.9886,89.6245,270.4863,0,U,69279,999,408,.49214309E-3,.18758E-3,0
KUIPER-00595,2026-118P,2026-06-17T21:31:22.998144,15.38551819,.00017091,51.8710,49.6895,147.0013,213.1081,0,U,69280,999,412,.12571341E-3,.4467E-4,0
KUIPER-00596,2026-118Q,2026-06-17T20:50:55.363776,15.34718750,.00126165,51.8560,50.2262,187.0032,173.0779,0,U,69281,999,408,.55197324E-3,.18565E-3,0
KUIPER-00597,2026-118R,2026-06-17T21:56:16.189728,15.37050244,.0007019,51.8657,49.7999,174.6423,185.4640,0,U,69282,999,409,.45038512E-3,.16238E-3,0
KUIPER-00599,2026-118S,2026-06-17T20:18:13.396032,15.37415280,.00069536,51.8694,50.0968,168.5990,191.5156,0,U,69283,999,408,.70397452E-3,.25943E-3,0
KUIPER-00600,2026-118T,2026-06-17T22:02:32.357184,15.36768516,.00089187,51.8649,49.8263,176.5705,183.5344,0,U,69284,999,409,.70131978E-3,.25313E-3,0
KUIPER-00601,2026-118U,2026-06-17T20:13:06.145536,15.37676277,.00047111,51.8706,50.0739,155.8530,204.2678,0,U,69285,999,408,.54307507E-3,.20072E-3,0
KUIPER-00602,2026-118V,2026-06-17T21:37:51.949344,15.38197121,.00030144,51.8701,49.7201,149.5330,210.5832,0,U,69286,999,409,.40145592E-3,.14978E-3,0
KUIPER-00603,2026-118W,2026-06-17T20:15:00.635904,15.37594043,.0005474,51.8674,50.0823,162.2006,197.9173,0,U,69287,999,408,.53816128E-3,.19834E-3,0
KUIPER-00605,2026-118X,2026-06-17T21:57:12.209760,15.37067922,.00074584,51.8670,49.8048,170.1796,189.9338,0,U,69288,999,409,.44942537E-3,.16213E-3,0
KUIPER-00606,2026-118Y,2026-06-17T20:11:13.571520,15.37708876,.00048976,51.8693,50.0659,157.0686,203.0520,0,U,69289,999,408,.54332461E-3,.20103E-3,0
KUIPER-00607,2026-118Z,2026-06-17T20:16:47.015040,15.37461679,.00062206,51.8680,50.0900,164.0256,196.0928,0,U,69290,999,408,.54664532E-3,.20069E-3,0
KUIPER-00608,2026-118AA,2026-06-17T22:15:36.259200,15.35230296,.00084357,51.8615,49.8802,178.8759,181.2248,0,U,69291,999,409,.16703782E-3,.5425E-4,0
KUIPER-00610,2026-118AB,2026-06-17T21:34:45.170688,15.38247940,.00027508,51.8722,49.7026,148.2954,211.8199,0,U,69292,999,409,-.34903726E-3,-.13734E-3,0
KUIPER-00613,2026-118AC,2026-06-17T19:14:59.900352,15.34886737,.00095059,51.8640,50.5417,184.8677,175.2217,0,U,69293,999,407,-.11181722E-2,-.38655E-3,0
KUIPER-00618,2026-118AD,2026-06-17T21:28:53.214240,15.38659951,.0001707,51.8718,49.6760,94.6309,265.4873,0,U,69294,999,409,.35912191E-3,.13561E-3,0
KUIPER-00620,2026-118AE,2026-06-17T21:33:56.924064,15.38323806,.00028364,51.8714,49.7007,123.8881,236.2376,0,U,69295,999,409,.33163793E-3,.12352E-3,0
STARLINK-37501,2026-119A,2026-06-17T22:00:01.999584,15.60703353,.00019037,97.2850,194.7376,92.0098,174.3010,0,U,69296,999,400,-.32284449E-1,-.2351417E-1,0
STARLINK-37496,2026-119B,2026-06-17T22:00:01.999584,15.60277367,.00014969,97.2851,194.7312,86.6804,169.5941,0,U,69297,999,400,-.90444223E-2,-.678626E-2,0
STARLINK-37519,2026-119C,2026-06-17T22:00:01.999584,15.60383338,.00016759,97.2847,194.7456,95.8184,189.8774,0,U,69298,999,400,-.34726678E-1,-.2479032E-1,0
STARLINK-37455,2026-119D,2026-06-17T22:00:01.999584,15.49760376,.00013541,97.2846,194.6713,91.2846,23.3477,0,U,69299,999,400,-.17442265E-1,-.880936E-2,0
STARLINK-37456,2026-119E,2026-06-17T22:00:01.999584,15.58871587,.00016808,97.2855,194.7448,95.8516,186.5812,0,U,69300,999,400,-.3587169E-1,-.2424667E-1,0
STARLINK-37630,2026-119F,2026-06-17T22:00:01.999584,15.49141419,.00008175,97.2848,194.5917,78.2757,214.2387,0,U,69301,999,416,.15452173E-2,.84717E-3,0
STARLINK-37804,2026-119G,2026-06-17T22:00:01.999584,15.49134850,.00013242,97.2848,194.5894,87.6388,197.8236,0,U,69302,999,416,.17147329E-2,.94113E-3,0
STARLINK-37730,2026-119H,2026-06-17T22:00:01.999584,15.65885698,.0001513,97.2841,194.7853,68.9900,318.8591,0,U,69303,999,416,-.28501329E-1,-.2520949E-1,0
STARLINK-37731,2026-119J,2026-06-17T22:00:01.999584,15.49141029,.00011182,97.2850,194.5857,70.9266,208.5301,0,U,69304,999,416,.14585512E-2,.79911E-3,0
STARLINK-37734,2026-119K,2026-06-17T22:00:01.999584,15.59062317,.00005308,97.2852,194.7416,211.8677,69.4411,0,U,69305,999,416,-.39818722E-1,-.2727147E-1,0
