KUIPER-00590            
1 69276U 26118K   26168.90480297  .00011801  00000+0  32137-3 0  9999
2 69276  51.8687  49.7429 0004145 161.0858 199.0284 15.37928952  4092
KUIPER-00592            
1 69277U 26118L   26168.90220272  .00012014  00000+0  32512-3 0  9999
2 69277  51.8707  49.7257 0003662 136.7836 223.3439 15.38106374  4093
KUIPER-00593            
1 69278U 26118M   26168.90293882  .00011975  00000+0  32454-3 0  9997
2 69278  51.8712  49.7296 0003806 156.5697 203.5464 15.38064403  4159
KUIPER-00594            
1 69279U 26118N   26168.82960662  .00018758  00000+0  49214-3 0  9994
2 69279  51.8716  49.9886 0001046  89.6245 270.4863 15.38681661  4089
KUIPER-00595            
1 69280U 26118P   26168.89679396  .00004467  00000+0  12571-3 0  9992
2 69280  51.8710  49.6895 0001709 147.0013 213.1081 15.38551819  4122
KUIPER-00596            
1 69281U 26118Q   26168.86869634  .00018565  00000+0  55197-3 0  9991
2 69281  51.8560  50.2262 0012616 187.0032 173.0779 15.34718750  4084
KUIPER-00597            
1 69282U 26118R   26168.91407627  .00016238  00000+0  45039-3 0  9997
2 69282  51.8657  49.7999 0007019 174.6423 185.4640 15.37050244  4094
KUIPER-00599            
1 69283U 26118S   26168.84598838  .00025943  00000+0  70397-3 0  9993
2 69283  51.8694  50.0968 0006953 168.5990 191.5156 15.37415280  4088
KUIPER-00600            
1 69284U 26118T   26168.91843006  .00025313  00000+0  70132-3 0  9990
2 69284  51.8649  49.8263 0008918 176.5705 183.5344 15.36768516  4092
KUIPER-00601            
1 69285U 26118U   26168.84243224  .00020072  00000+0  54308-3 0  9993
2 69285  51.8706  50.0739 0004711 155.8530 204.2678 15.37676277  4085
KUIPER-00602            
1 69286U 26118V   26168.90129571  .00014978  00000+0  40146-3 0  9992
2 69286  51.8701  49.7201 0003014 149.5330 210.5832 15.38197121  4093
KUIPER-00603            
1 69287U 26118W   26168.84375736  .00019834  00000+0  53816-3 0  9996
2 69287  51.8674  50.0823 0005474 162.2006 197.9173 15.37594043  4080
KUIPER-00605            
1 69288U 26118X   26168.91472465  .00016213  00000+0  44943-3 0  9991
2 69288  51.8670  49.8048 0007458 170.1796 189.9338 15.37067922  4096
KUIPER-00606            
1 69289U 26118Y   26168.84112930  .00020103  00000+0  54332-3 0  9998
2 69289  51.8693  50.0659 0004897 157.0686 203.0520 15.37708876  4080
KUIPER-00607            
1 69290U 26118Z   26168.84498860  .00020069  00000+0  54665-3 0  9999
2 69290  51.8680  50.0900 0006220 164.0256 196.0928 15.37461679  4080
KUIPER-00608            
1 69291U 26118AA  26168.92750300  .00005425  00000+0  16704-3 0  9990
2 69291  51.8615  49.8802 0008435 178.8759 181.2248 15.35230296  4096
KUIPER-00610            
1 69292U 26118AB  26168.89913392 -.00013734  00000+0 -34904-3 0  9995
2 69292  51.8722  49.7026 0002750 148.2954 211.8199 15.38247940  4097
KUIPER-00613            
1 69293U 26118AC  26168.80208218 -.00038655  00000+0 -11182-2 0  9992
2 69293  51.8640  50.5417 0009505 184.8677 175.2217 15.34886737  4075
KUIPER-00618            
1 69294U 26118AD  26168.89506035  .00013561  00000+0  35912-3 0  9995
2 69294  51.8718  49.6760 0001707  94.6309 265.4873 15.38659951  4090
KUIPER-00620            
1 69295U 26118AE  26168.89857551  .00012352  00000+0  33164-3 0  9992
2 69295  51.8714  49.7007 0002836 123.8881 236.2376 15.38323806  4097
STARLINK-37501          
1 69296U 26119A   26168.91668981 -.02351417  00000+0 -32284-1 0  9996
2 69296  97.2850 194.7376 0001903  92.0098 174.3010 15.60703353  4006
STARLINK-37496          
1 69297U 26119B   26168.91668981 -.00678626  00000+0 -90444-2 0  9992
2 69297  97.2851 194.7312 0001496  86.6804 169.5941 15.60277367  4009
STARLINK-37519          
1 69298U 26119C   26168.91668981 -.02479032  00000+0 -34727-1 0  9996
2 69298  97.2847 194.7456 0001675  95.8184 189.8774 15.60383338  4001
STARLINK-37455          
1 69299U 26119D   26168.91668981 -.00880936  00000+0 -17442-1 0  9999
2 69299  97.2846 194.6713 0001354  91.2846  23.3477 15.49760376  4005
STARLINK-37456          
1 69300U 26119E   26168.91668981 -.02424667  00000+0 -35872-1 0  9996
2 69300  97.2855 194.7448 0001680  95.8516 186.5812 15.58871587  4002
STARLINK-37630          
1 69301U 26119F   26168.91668981  .00084717  00000+0  15452-2 0  9994
2 69301  97.2848 194.5917 0000817  78.2757 214.2387 15.49141419  4164
STARLINK-37804          
1 69302U 26119G   26168.91668981  .00094113  00000+0  17147-2 0  9999
2 69302  97.2848 194.5894 0001324  87.6388 197.8236 15.49134850  4167
STARLINK-37730          
1 69303U 26119H   26168.91668981 -.02520949  00000+0 -28501-1 0  9990
2 69303  97.2841 194.7853 0001513  68.9900 318.8591 15.65885698  4160
STARLINK-37731          
1 69304U 26119J   26168.91668981  .00079911  00000+0  14586-2 0  9994
2 69304  97.2850 194.5857 0001118  70.9266 208.5301 15.49141029  4161
STARLINK-37734          
1 69305U 26119K   26168.91668981 -.02727147  00000+0 -39819-1 0  9995
2 69305  97.2852 194.7416 0000530 211.8677  69.4411 15.59062317  4165
